NORAD_CAT_ID,OBJECT_NAME,OBJECT_TYPE,EPOCH,MEAN_MOTION,ECCENTRICITY,INCLINATION,RA_OF_ASC_NODE,ARG_OF_PERICENTER,MEAN_ANOMALY,BSTAR,MEAN_MOTION_DOT,MEAN_MOTION_DDOT,TLE_LINE0,TLE_LINE1,TLE_LINE2,SEMIMAJOR_AXIS,PERIOD,APOGEE,PERIGEE,DECAYED
50812.0,STARLINK-3338,PAYLOAD,2024-01-01 13:50:55,15.08842724,0.0001179,53.2165,142.0944,90.5494,269.5633,-2.8196e-05,-7.37e-06,0.0,0 STARLINK-3338,1 50812U 22001K   24001.57703517 -.00000737  00000-0 -28196-4 0  9992,2 50812  53.2165 142.0944 0001179  90.5494 269.5633 15.08842724110055,6917.872,95.437,540.553,538.921,0.0
50812.0,STARLINK-3338,PAYLOAD,2024-01-01 17:01:42,15.08841135,0.0001442,53.217,141.5004,67.3462,292.7682,7.3315e-05,8.79e-06,0.0,0 STARLINK-3338,1 50812U 22001K   24001.70951399  .00000879  00000-0  73315-4 0  9998,2 50812  53.2170 141.5004 0001442  67.3462 292.7682 15.08841135111320,6917.877,95.437,540.739,538.744,0.0
50812.0,STARLINK-3338,PAYLOAD,2024-01-02 13:41:42,15.08840112,0.0001419,53.2171,137.634,69.2444,290.87,1.5433e-05,-4.2e-07,0.0,0 STARLINK-3338,1 50812U 22001K   24002.57063652 -.00000042  00000-0  15433-4 0  9990,2 50812  53.2171 137.6340 0001419  69.2444 290.8700 15.08840112110205,6917.88,95.438,540.727,538.763,0.0
50812.0,STARLINK-3338,PAYLOAD,2024-01-02 15:17:05,15.08843748,0.0001324,53.2174,137.3361,72.0898,288.0238,1.2333e-05,-9.2e-07,0.0,0 STARLINK-3338,1 50812U 22001K   24002.63687416 -.00000092  00000-0  12333-4 0  9998,2 50812  53.2174 137.3361 0001324  72.0898 288.0238 15.08843748110212,6917.869,95.437,540.65,538.818,0.0
50812.0,STARLINK-3338,PAYLOAD,2024-01-03 11:57:07,15.08836463,0.0001266,53.2164,133.4713,82.7047,277.4089,-3.5346e-06,-3.44e-06,0.0,0 STARLINK-3338,1 50812U 22001K   24003.49799894 -.00000344  00000-0 -35346-5 0  9998,2 50812  53.2164 133.4713 0001266  82.7047 277.4089 15.08836463111592,6917.891,95.438,540.632,538.88,0.0
50812.0,STARLINK-3338,PAYLOAD,2024-01-03 13:32:30,15.08825294,0.0001166,53.2168,133.1738,87.8879,272.2247,0.00013365,1.839e-05,0.0,0 STARLINK-3338,1 50812U 22001K   24003.56423982  .00001839  00000-0  13365-3 0  9991,2 50812  53.2168 133.1738 0001166  87.8879 272.2247 15.08825294110350,6917.925,95.438,540.597,538.984,0.0
50812.0,STARLINK-3338,PAYLOAD,2024-01-03 15:07:53,15.08838464,0.0001281,53.2167,132.8763,79.3428,280.7708,-1.2532e-05,-4.87e-06,0.0,0 STARLINK-3338,1 50812U 22001K   24003.63047834 -.00000487  00000-0 -12532-4 0  9993,2 50812  53.2167 132.8763 0001281  79.3428 280.7708 15.08838464110367,6917.885,95.438,540.636,538.864,0.0
50812.0,STARLINK-3338,PAYLOAD,2024-01-04 13:23:17,15.08838775,0.0001278,53.2167,128.7132,85.1377,274.9761,2.3037e-05,7.9e-07,0.0,0 STARLINK-3338,1 50812U 22001K   24004.55783765  .00000079  00000-0  23037-4 0  9992,2 50812  53.2167 128.7132 0001278  85.1377 274.9761 15.08838775110500,6917.884,95.438,540.633,538.865,0.0
50812.0,STARLINK-3338,PAYLOAD,2024-01-04 14:58:40,15.08839634,0.0001282,53.2166,128.4158,86.5879,273.526,3.0209e-05,1.93e-06,0.0,0 STARLINK-3338,1 50812U 22001K   24004.62407683  .00000193  00000-0  30209-4 0  9998,2 50812  53.2166 128.4158 0001282  86.5879 273.5260 15.08839634111764,6917.882,95.438,540.633,538.86,0.0
50812.0,STARLINK-3338,PAYLOAD,2024-01-05 11:38:41,15.08833081,0.0001321,53.217,124.5503,81.2645,278.8497,1.1348e-05,-1.07e-06,0.0,0 STARLINK-3338,1 50812U 22001K   24005.48520421 -.00000107  00000-0  11348-4 0  9998,2 50812  53.2170 124.5503 0001321  81.2645 278.8497 15.08833081111891,6917.902,95.438,540.68,538.853,0.0
50812.0,STARLINK-3338,PAYLOAD,2024-01-05 13:14:04,15.08833928,0.0001355,53.217,124.253,80.7102,279.4043,1.9866e-05,2.8e-07,0.0,0 STARLINK-3338,1 50812U 22001K   24005.55144373  .00000028  00000-0  19866-4 0  9998,2 50812  53.2170 124.2530 0001355  80.7102 279.4043 15.08833928110654,6917.899,95.438,540.701,538.827,0.0
50812.0,STARLINK-3338,PAYLOAD,2024-01-06 11:29:28,15.08837468,0.000138,53.2172,120.0899,85.8147,274.3003,1.6766e-05,-2.1e-07,0.0,0 STARLINK-3338,1 50812U 22001K   24006.47880408 -.00000021  00000-0  16766-4 0  9996,2 50812  53.2172 120.0899 0001380  85.8147 274.3003 15.08837468110799,6917.888,95.438,540.708,538.798,0.0
50812.0,STARLINK-3338,PAYLOAD,2024-01-06 14:40:14,15.08841331,0.0001397,53.2172,119.4947,89.4257,270.6895,4.7093e-05,4.62e-06,0.0,0 STARLINK-3338,1 50812U 22001K   24006.61128063  .00000462  00000-0  47093-4 0  9999,2 50812  53.2172 119.4947 0001397  89.4257 270.6895 15.08841331112069,6917.876,95.437,540.708,538.775,0.0
50812.0,STARLINK-3338,PAYLOAD,2024-01-07 11:20:15,15.08836242,0.0001428,53.2171,115.6291,96.3987,263.7167,3.5206e-05,2.72e-06,0.0,0 STARLINK-3338,1 50812U 22001K   24007.47240546  .00000272  00000-0  35206-4 0  9997,2 50812  53.2171 115.6291 0001428  96.3987 263.7167 15.08836242112194,6917.892,95.438,540.745,538.769,0.0
50812.0,STARLINK-3338,PAYLOAD,2024-01-07 12:55:38,15.0883751,0.0001438,53.2171,115.3316,95.901,264.2146,4.6624e-05,4.54e-06,0.0,0 STARLINK-3338,1 50812U 22001K   24007.53864460  .00000454  00000-0  46624-4 0  9999,2 50812  53.2171 115.3316 0001438  95.9010 264.2146 15.08837510110956,6917.888,95.438,540.748,538.758,0.0
50812.0,STARLINK-3338,PAYLOAD,2024-01-08 11:11:02,15.0885394,0.0001245,53.2168,111.1693,96.2221,263.8913,-0.00011978,-2.194e-05,0.0,0 STARLINK-3338,1 50812U 22001K   24008.46600076 -.00002194  00000-0 -11978-3 0  9991,2 50812  53.2168 111.1693 0001245  96.2221 263.8913 15.08853940112345,6917.838,95.437,540.564,538.842,0.0
50812.0,STARLINK-3338,PAYLOAD,2024-01-08 14:21:48,15.08842751,0.0001428,53.2172,110.5749,83.4296,276.6858,8.8216e-05,1.116e-05,0.0,0 STARLINK-3338,1 50812U 22001K   24008.59848135  .00001116  00000-0  88216-4 0  9996,2 50812  53.2172 110.5749 0001428  83.4296 276.6858 15.08842751111110,6917.872,95.437,540.725,538.749,0.0
50812.0,STARLINK-3338,PAYLOAD,2024-01-09 11:01:49,15.08841739,0.0001317,53.2173,106.7095,86.8659,273.2484,4.1502e-05,3.73e-06,0.0,0 STARLINK-3338,1 50812U 22001K   24009.45960285  .00000373  00000-0  41502-4 0  9994,2 50812  53.2173 106.7095 0001317  86.8659 273.2484 15.08841739112494,6917.875,95.437,540.651,538.829,0.0
50812.0,STARLINK-3338,PAYLOAD,2024-01-09 12:37:12,15.08844118,0.0001429,53.2172,106.412,80.6503,279.4651,6.4343e-05,7.36e-06,0.0,0 STARLINK-3338,1 50812U 22001K   24009.52584119  .00000736  00000-0  64343-4 0  9991,2 50812  53.2172 106.4120 0001429  80.6503 279.4651 15.08844118111254,6917.868,95.437,540.721,538.744,0.0
50812.0,STARLINK-3338,PAYLOAD,2024-01-10 01:20:17,15.08851981,0.0001241,53.2173,104.033,91.1357,268.9777,8.8794e-05,1.126e-05,0.0,0 STARLINK-3338,1 50812U 22001K   24010.05575244  .00001126  00000-0  88794-4 0  9990,2 50812  53.2173 104.0330 0001241  91.1357 268.9777 15.08851981112583,6917.844,95.437,540.567,538.85,0.0
50812.0,STARLINK-3338,PAYLOAD,2024-01-10 10:52:34,15.08859782,0.0001257,53.217,102.2483,92.0785,268.0351,0.00014305,1.991e-05,0.0,0 STARLINK-3338,1 50812U 22001K   24010.45318202  .00001991  00000-0  14305-3 0  9999,2 50812  53.2170 102.2483 0001257  92.0785 268.0351 15.08859782112644,6917.82,95.436,540.554,538.815,0.0
50812.0,STARLINK-3338,PAYLOAD,2024-01-10 15:38:43,15.08867837,0.0001292,53.2169,101.3548,106.6019,253.5115,0.00018855,2.716e-05,0.0,0 STARLINK-3338,1 50812U 22001K   24010.65189228  .00002716  00000-0  18855-3 0  9995,2 50812  53.2169 101.3548 0001292 106.6019 253.5115 15.08867837112675,6917.795,95.436,540.554,538.767,0.0
50812.0,STARLINK-3338,PAYLOAD,2024-01-11 12:18:46,15.088351,0.0001345,53.2169,97.4897,102.3537,257.7606,-7.9233e-05,-1.548e-05,0.0,0 STARLINK-3338,1 50812U 22001K   24011.51304229 -.00001548  00000-0 -79233-4 0  9993,2 50812  53.2169  97.4897 0001345 102.3537 257.7606 15.08835100112808,6917.895,95.438,540.691,538.83,0.0
50812.0,STARLINK-3338,PAYLOAD,2024-01-11 15:29:33,15.08836314,0.0001385,53.2169,96.8944,109.3955,250.7187,-6.5429e-05,-1.329e-05,0.0,0 STARLINK-3338,1 50812U 22001K   24011.64552111 -.00001329  00000-0 -65429-4 0  9991,2 50812  53.2169  96.8944 0001385 109.3955 250.7187 15.08836314111577,6917.892,95.438,540.715,538.799,0.0
50812.0,STARLINK-3338,PAYLOAD,2024-01-12 12:09:33,15.08848603,0.0001282,53.2173,93.0285,103.7168,256.3967,-4.584e-05,-1.018e-05,0.0,0 STARLINK-3338,1 50812U 22001K   24012.50663356 -.00001018  00000-0 -45840-4 0  9991,2 50812  53.2173  93.0285 0001282 103.7168 256.3967 15.08848603112954,6917.854,95.437,540.606,538.832,0.0
50812.0,STARLINK-3338,PAYLOAD,2024-01-12 15:20:19,15.08845391,0.0001258,53.2174,92.4332,129.8939,230.2163,3.9238e-05,3.37e-06,0.0,0 STARLINK-3338,1 50812U 22001K   24012.63911160  .00000337  00000-0  39238-4 0  9999,2 50812  53.2174  92.4332 0001258 129.8939 230.2163 15.08845391111723,6917.864,95.437,540.599,538.859,0.0
50812.0,STARLINK-3338,PAYLOAD,2024-01-13 10:24:58,15.08830778,0.0001488,53.2177,88.8633,114.7397,245.375,0.00011133,1.484e-05,0.0,0 STARLINK-3338,1 50812U 22001K   24013.43400550  .00001484  00000-0  11133-3 0  9991,2 50812  53.2177  88.8633 0001488 114.7397 245.3750 15.08830778113099,6917.909,95.438,540.803,538.744,0.0
50812.0,STARLINK-3338,PAYLOAD,2024-01-14 10:15:45,15.0884001,0.0001379,53.2173,84.4056,97.748,262.3669,8.3257e-05,1.037e-05,0.0,0 STARLINK-3338,1 50812U 22001K   24014.42760795  .00001037  00000-0  83257-4 0  9992,2 50812  53.2173  84.4056 0001379  97.7480 262.3669 15.08840010111993,6917.88,95.438,540.699,538.791,0.0
50812.0,STARLINK-3338,PAYLOAD,2024-01-15 03:45:00,15.08819145,0.0001446,53.217,81.1366,100.4474,259.6681,0.000414,6.303e-05,0.0,0 STARLINK-3338,1 50812U 22001K   24015.15626035  .00006303  00000-0  41400-3 0  9995,2 50812  53.2170  81.1366 0001446 100.4474 259.6681 15.08819145113358,6917.944,95.439,540.809,538.809,0.0
50812.0,STARLINK-3338,PAYLOAD,2024-01-15 11:41:55,15.08843505,0.0001486,53.2161,79.6515,79.9383,280.1777,0.00014964,2.095e-05,0.0,0 STARLINK-3338,1 50812U 22001K   24015.48744851  .00002095  00000-0  14964-3 0  9997,2 50812  53.2161  79.6515 0001486  79.9383 280.1777 15.08843505113407,6917.87,95.437,540.763,538.707,0.0
